OBJECT_NAME,OBJECT_ID,EPOCH,MEAN_MOTION,ECCENTRICITY,INCLINATION,RA_OF_ASC_NODE,ARG_OF_PERICENTER,MEAN_ANOMALY,EPHEMERIS_TYPE,CLASSIFICATION_TYPE,NORAD_CAT_ID,ELEMENT_SET_NO,REV_AT_EPOCH,BSTAR,MEAN_MOTION_DOT,MEAN_MOTION_DDOT
ONEWEB-0534,2023-029B,2026-07-13T14:13:55.558560,13.20773171,.00020459,87.9184,269.2059,102.5991,257.5371,0,U,55797,999,16463,-.52426984E-4,-.8E-7,0
ONEWEB-0556,2023-029C,2026-07-13T14:23:40.328448,13.20808809,.00014479,87.9176,269.2033,109.9843,250.1446,0,U,55798,999,16463,-.73588476E-4,-.17E-6,0
ONEWEB-0562,2023-029D,2026-07-13T14:04:14.914272,13.20772201,.0001374,87.9181,269.1867,80.0706,280.0582,0,U,55799,999,16463,-.88291451E-4,-.23E-6,0
ONEWEB-0563,2023-029E,2026-07-12T17:56:58.449408,13.20769722,.00020672,87.9178,269.3847,104.8818,255.2544,0,U,55800,999,16451,-.28856354E-4,.1E-7,0
ONEWEB-0564,2023-029F,2026-07-13T13:47:17.295072,13.20771931,.00017859,87.9178,269.1937,90.7120,269.4218,0,U,55801,999,16463,-.56317868E-4,-.1E-6,0
ONEWEB-0638,2023-029G,2026-07-13T04:43:40.831104,13.14504197,.0001345,87.8951,284.5680,95.7877,264.3406,0,U,55802,999,16281,-.71E-3,-.25E-5,0
ONEWEB-0639,2023-029H,2026-07-13T08:10:04.457568,13.19725797,.00025565,87.9184,299.7680,121.8492,238.2890,0,U,55803,999,16235,-.5427998E-4,-.9E-7,0
ONEWEB-0640,2023-029J,2026-07-13T04:57:22.789728,13.14502073,.0001425,87.8961,284.5558,118.9014,241.2259,0,U,55804,999,16283,-.88348E-3,-.315E-5,0
ONEWEB-0641,2023-029K,2026-07-13T08:03:15.334560,13.19726661,.00021117,87.9191,299.7599,104.9058,255.2309,0,U,55805,999,16236,-.55775928E-4,-.9E-7,0
ONEWEB-0642,2023-029L,2026-07-13T07:56:27.137760,13.19727652,.00028482,87.9184,299.7712,115.2917,244.8511,0,U,55806,999,16235,-.60431463E-3,-.229E-5,0
ONEWEB-0643,2023-029M,2026-07-13T15:11:39.712128,13.14502072,.0002674,87.8962,284.4581,109.6199,250.5220,0,U,55807,999,16286,.39884798E-3,.161E-5,0
ONEWEB-0644,2023-029N,2026-07-13T07:49:37.842816,13.19725910,.00022775,87.9180,299.7731,107.5884,252.5498,0,U,55808,999,16235,.13652112E-3,.68E-6,0
ONEWEB-0645,2023-029P,2026-07-13T08:21:28.187424,13.19726049,.00019992,87.9185,299.7654,120.2277,239.9054,0,U,55809,999,16235,-.14743023E-3,-.46E-6,0
ONEWEB-0646,2023-029Q,2026-07-13T08:46:28.719552,13.19726331,.0002205,87.9190,299.7616,105.8063,254.3313,0,U,55810,999,16234,-.13175072E-3,-.4E-6,0
ONEWEB-0648,2023-029R,2026-07-12T16:30:40.040352,13.14503462,.0002252,87.8971,284.6227,124.7134,235.4208,0,U,55811,999,16274,.15905356E-3,.72E-6,0
ONEWEB-0649,2023-029S,2026-07-13T07:33:41.174496,13.19726777,.00019987,87.9183,299.7706,108.5218,251.6132,0,U,55812,999,16237,.67090759E-4,.4E-6,0
ONEWEB-0650,2023-029T,2026-07-13T07:26:52.082592,13.19726470,.0002464,87.9184,299.7733,112.6560,247.4834,0,U,55813,999,16234,.9708E-4,.52E-6,0
ONEWEB-0652,2023-029U,2026-07-13T04:50:31.760736,13.14502556,.000201,87.8969,284.5272,95.2564,264.8795,0,U,55814,999,16278,-.6052E-3,-.212E-5,0
ONEWEB-0653,2023-029V,2026-07-13T15:25:20.921664,13.14501817,.00019542,87.8975,284.4368,100.3652,259.7698,0,U,55815,999,16287,-.25549661E-4,.3E-7,0
ONEWEB-0654,2023-029W,2026-07-13T15:18:29.884032,13.14501588,.00018498,87.8977,284.4336,88.8606,271.2736,0,U,55816,999,16289,.19123506E-3,.84E-6,0
ONEWEB-0656,2023-029X,2026-07-13T15:26:39.886944,13.20770089,.00018912,87.9184,269.1599,90.0123,270.1227,0,U,55817,999,16464,-.13028501E-3,-.4E-6,0
ONEWEB-0657,2023-029Y,2026-07-13T07:20:05.312256,13.19727259,.0002293,87.9183,299.7732,79.3516,280.7875,0,U,55818,999,16235,.10532E-3,.55E-6,0
ONEWEB-0658,2023-029Z,2026-07-13T05:24:03.754944,13.19726475,.0002345,87.9199,299.7658,108.8891,251.2496,0,U,55819,999,16235,-.49495E-4,-.7E-7,0
ONEWEB-0660,2023-029AA,2026-07-13T05:38:28.809888,13.14502293,.0001934,87.8983,284.5096,107.7029,252.4312,0,U,55820,999,16282,.98568E-3,.378E-5,0
ONEWEB-0661,2023-029AB,2026-07-12T19:31:04.118304,13.14502357,.00018076,87.8962,284.6346,106.3305,253.8024,0,U,55821,999,16275,-.469947E-3,-.161E-5,0
ONEWEB-0662,2023-029AC,2026-07-13T07:18:57.972096,13.14523810,.0001541,87.8961,284.5428,97.4834,262.6471,0,U,55822,999,16286,-.11291E-1,-.4172E-4,0
ONEWEB-0663,2023-029AD,2026-07-13T14:23:16.651392,13.20871425,.0002194,87.9186,269.2403,107.2760,252.8614,0,U,55823,999,16463,.15599197E-3,.77E-6,0
ONEWEB-0664,2023-029AE,2026-07-13T15:07:17.736960,13.20772117,.0001669,87.9168,269.2119,99.4540,260.6782,0,U,55824,999,16463,-.78402203E-4,-.19E-6,0
ONEWEB-0665,2023-029AF,2026-07-13T04:34:33.051648,13.14502145,.0001981,87.8963,284.5400,109.8543,250.2801,0,U,55825,999,16282,-.33446E-3,-.111E-5,0
ONEWEB-0666,2023-029AG,2026-07-13T14:57:34.263072,13.20772926,.00024939,87.9172,269.2022,85.5519,274.5900,0,U,55826,999,16464,-.23326774E-4,.4E-7,0
